STARLINK-37592          
1 69025U 26101A   26132.83335648 -.02211400  00000+0 -10602-1 0  9997
2 69025  97.2885 346.9346 0001468 103.9430 209.7993 15.85955428  2280
