{
  "norad_id": 69025,
  "name": "STARLINK-37592",
  "history": [
    {
      "epoch": "2026-05-12T20:00:01.999008Z",
      "apogee_km": 314.61818673435937,
      "perigee_km": 312.65348223015553,
      "latitude_deg": -46.05947330953065,
      "longitude_deg": -176.09239435086283,
      "height_km": 332.39561374814855,
      "semi_major_axis_km": 6691.772834482257,
      "eccentricity": 0.0001468,
      "inclination_deg": 97.2885,
      "raan_deg": 346.9346,
      "arg_perigee_deg": 103.943,
      "mean_anomaly_deg": 209.7993,
      "mean_motion_rev_day": 15.85955428
    }
  ]
}